start=new Date('2021-10-06T00:00:00.000Z').valueOf();
sats=[{"MEAN_ANOMALY":"133.8333","REF_FRAME":"TEME","GP_ID":"186307835","SEMIMAJOR_AXIS":"6737.786","PERIAPSIS":"357.440","TLE_LINE1":"1 49168U 21082AQ  21278.91668981  .00027330  00000-0  23009-3 0  9991","CENTER_NAME":"EARTH","APOAPSIS":"361.862","PERIOD":"91.735","EPHEMERIS_TYPE":"0","TIME_SYSTEM":"UTC","NORAD_CAT_ID":"49168","OBJECT_TYPE":"PAYLOAD","MEAN_MOTION":"15.69737198","CLASSIFICATION_TYPE":"U","RA_OF_ASC_NODE":"65.5509","ELEMENT_SET_NO":"999","DECAY_DATE":null,"MEAN_MOTION_DDOT":"0.0000000000000","INCLINATION":"70.0017","OBJECT_ID":"2021-082AQ","OBJECT_NAME":"STARLINK-3101","SITE":"AFWTR","ARG_OF_PERICENTER":"282.7209","REV_AT_EPOCH":"374","RCS_SIZE":"LARGE","MEAN_ELEMENT_THEORY":"SGP4","LAUNCH_DATE":"2021-09-14","TLE_LINE2":"2 49168  70.0017  65.5509 0003281 282.7209 133.8333 15.69737198  3743","FILE":"3146344","BSTAR":"0.00023009000000","COUNTRY_CODE":"US","EPOCH":"2021-10-05T22:00:01.999584","MEAN_MOTION_DOT":"0.00027330","ECCENTRICITY":"0.00032810"},{"COUNTRY_CODE":"US","EPOCH":"2021-10-05T22:00:01.999584","MEAN_MOTION_DOT":"0.00028612","ECCENTRICITY":"0.00031620","BSTAR":"0.00024067000000","LAUNCH_DATE":"2021-09-14","TLE_LINE2":"2 49169  70.0011  65.5547 0003162 283.3412 128.9208 15.69746777  3740","FILE":"3146344","REV_AT_EPOCH":"374","RCS_SIZE":"LARGE","MEAN_ELEMENT_THEORY":"SGP4","SITE":"AFWTR","ARG_OF_PERICENTER":"283.3412","OBJECT_NAME":"STARLINK-3046","INCLINATION":"70.0011","OBJECT_ID":"2021-082AR","MEAN_MOTION_DDOT":"0.0000000000000","ELEMENT_SET_NO":"999","DECAY_DATE":null,"MEAN_MOTION":"15.69746777","CLASSIFICATION_TYPE":"U","RA_OF_ASC_NODE":"65.5547","TIME_SYSTEM":"UTC","NORAD_CAT_ID":"49169","OBJECT_TYPE":"PAYLOAD","PERIOD":"91.735","EPHEMERIS_TYPE":"0","PERIAPSIS":"357.493","TLE_LINE1":"1 49169U 21082AR  21278.91668981  .00028612  00000-0  24067-3 0  9991","CENTER_NAME":"EARTH","APOAPSIS":"361.754","MEAN_ANOMALY":"128.9208","REF_FRAME":"TEME","GP_ID":"186308051","SEMIMAJOR_AXIS":"6737.759"},{"OBJECT_NAME":"STARLINK-3074","ARG_OF_PERICENTER":"280.4612","SITE":"AFWTR","OBJECT_ID":"2021-082AS","INCLINATION":"70.0019","BSTAR":"-0.00054241000000","EPOCH":"2021-10-05T22:00:01.999584","COUNTRY_CODE":"US","ECCENTRICITY":"0.00035720","MEAN_MOTION_DOT":"-0.00064580","RCS_SIZE":"LARGE","REV_AT_EPOCH":"374","MEAN_ELEMENT_THEORY":"SGP4","TLE_LINE2":"2 49170  70.0019  65.5434 0003572 280.4612 142.4280 15.69790556  3745","LAUNCH_DATE":"2021-09-14","FILE":"3146344","PERIOD":"91.732","EPHEMERIS_TYPE":"0","REF_FRAME":"TEME","MEAN_ANOMALY":"142.4280","SEMIMAJOR_AXIS":"6737.633","GP_ID":"186307943","PERIAPSIS":"357.092","CENTER_NAME":"EARTH","APOAPSIS":"361.905","TLE_LINE1":"1 49170U 21082AS  21278.91668981 -.00064580  00000-0 -54241-3 0  9996","ELEMENT_SET_NO":"999","DECAY_DATE":null,"MEAN_MOTION_DDOT":"0.0000000000000","NORAD_CAT_ID":"49170","TIME_SYSTEM":"UTC","OBJECT_TYPE":"PAYLOAD","MEAN_MOTION":"15.69790556","CLASSIFICATION_TYPE":"U","RA_OF_ASC_NODE":"65.5434"},{"CENTER_NAME":"EARTH","APOAPSIS":"361.728","TLE_LINE1":"1 49171U 21082AT  21278.91668981 -.00503790  00000-0 -44506-2 0  9990","PERIAPSIS":"356.714","SEMIMAJOR_AXIS":"6737.356","GP_ID":"186307392","REF_FRAME":"TEME","MEAN_ANOMALY":"136.1696","EPHEMERIS_TYPE":"0","PERIOD":"91.726","RA_OF_ASC_NODE":"65.5495","CLASSIFICATION_TYPE":"U","MEAN_MOTION":"15.69887319","OBJECT_TYPE":"PAYLOAD","NORAD_CAT_ID":"49171","TIME_SYSTEM":"UTC","MEAN_MOTION_DDOT":"0.0000000000000","ELEMENT_SET_NO":"999","DECAY_DATE":null,"OBJECT_ID":"2021-082AT","INCLINATION":"69.9998","ARG_OF_PERICENTER":"278.2318","SITE":"AFWTR","OBJECT_NAME":"STARLINK-3107","FILE":"3146344","LAUNCH_DATE":"2021-09-14","TLE_LINE2":"2 49171  69.9998  65.5495 0003721 278.2318 136.1696 15.69887319  3789","MEAN_ELEMENT_THEORY":"SGP4","RCS_SIZE":"LARGE","REV_AT_EPOCH":"378","ECCENTRICITY":"0.00037210","MEAN_MOTION_DOT":"-0.00503790","EPOCH":"2021-10-05T22:00:01.999584","COUNTRY_CODE":"US","BSTAR":"-0.00445060000000"},{"NORAD_CAT_ID":"49172","TIME_SYSTEM":"UTC","OBJECT_TYPE":"PAYLOAD","MEAN_MOTION":"15.69739107","CLASSIFICATION_TYPE":"U","RA_OF_ASC_NODE":"65.5398","DECAY_DATE":null,"ELEMENT_SET_NO":"999","MEAN_MOTION_DDOT":"0.0000000000000","REF_FRAME":"TEME","MEAN_ANOMALY":"144.9977","SEMIMAJOR_AXIS":"6737.780","GP_ID":"186307500","PERIAPSIS":"357.311","CENTER_NAME":"EARTH","APOAPSIS":"361.980","TLE_LINE1":"1 49172U 21082AU  21278.91668981  .00028168  00000-0  23704-3 0  9998","PERIOD":"91.735","EPHEMERIS_TYPE":"0","RCS_SIZE":"LARGE","REV_AT_EPOCH":"374","MEAN_ELEMENT_THEORY":"SGP4","LAUNCH_DATE":"2021-09-14","TLE_LINE2":"2 49172  70.0012  65.5398 0003465 280.0609 144.9977 15.69739107  3747","FILE":"3146344","BSTAR":"0.00023704000000","EPOCH":"2021-10-05T22:00:01.999584","COUNTRY_CODE":"US","ECCENTRICITY":"0.00034650","MEAN_MOTION_DOT":"0.00028168","OBJECT_ID":"2021-082AU","INCLINATION":"70.0012","OBJECT_NAME":"STARLINK-3091","ARG_OF_PERICENTER":"280.0609","SITE":"AFWTR"},{"EPHEMERIS_TYPE":"0","PERIOD":"91.726","TLE_LINE1":"1 49173U 21082AV  21278.91668981 -.00332444  00000-0 -28778-2 0  9991","CENTER_NAME":"EARTH","APOAPSIS":"361.611","PERIAPSIS":"356.825","GP_ID":"186308147","SEMIMAJOR_AXIS":"6737.353","MEAN_ANOMALY":"51.4309","REF_FRAME":"TEME","MEAN_MOTION_DDOT":"0.0000000000000","ELEMENT_SET_NO":"999","DECAY_DATE":null,"CLASSIFICATION_TYPE":"U","RA_OF_ASC_NODE":"65.2273","MEAN_MOTION":"15.69888622","OBJECT_TYPE":"PAYLOAD","TIME_SYSTEM":"UTC","NORAD_CAT_ID":"49173","SITE":"AFWTR","ARG_OF_PERICENTER":"279.8944","OBJECT_NAME":"STARLINK-3045","INCLINATION":"70.0003","OBJECT_ID":"2021-082AV","MEAN_MOTION_DOT":"-0.00332444","ECCENTRICITY":"0.00035520","COUNTRY_CODE":"US","EPOCH":"2021-10-05T22:00:01.999584","BSTAR":"-0.00287780000000","FILE":"3146344","LAUNCH_DATE":"2021-09-14","TLE_LINE2":"2 49173  70.0003  65.2273 0003552 279.8944  51.4309 15.69888622  3795","MEAN_ELEMENT_THEORY":"SGP4","RCS_SIZE":"LARGE","REV_AT_EPOCH":"379"},{"MEAN_MOTION_DDOT":"0.0000000000000","DECAY_DATE":null,"ELEMENT_SET_NO":"999","CLASSIFICATION_TYPE":"U","RA_OF_ASC_NODE":"65.5458","MEAN_MOTION":"15.69782543","OBJECT_TYPE":"PAYLOAD","TIME_SYSTEM":"UTC","NORAD_CAT_ID":"49174","EPHEMERIS_TYPE":"0","PERIOD":"91.732","TLE_LINE1":"1 49174U 21082AW  21278.91668981 -.00058766  00000-0 -49324-3 0  9995","APOAPSIS":"361.921","CENTER_NAME":"EARTH","PERIAPSIS":"357.121","GP_ID":"186307608","SEMIMAJOR_AXIS":"6737.656","MEAN_ANOMALY":"140.6471","REF_FRAME":"TEME","MEAN_MOTION_DOT":"-0.00058766","ECCENTRICITY":"0.00035620","COUNTRY_CODE":"US","EPOCH":"2021-10-05T22:00:01.999584","BSTAR":"-0.00049324000000","FILE":"3146344","LAUNCH_DATE":"2021-09-14","TLE_LINE2":"2 49174  70.0019  65.5458 0003562 280.1636 140.6471 15.69782543  3746","MEAN_ELEMENT_THEORY":"SGP4","RCS_SIZE":"LARGE","REV_AT_EPOCH":"374","SITE":"AFWTR","ARG_OF_PERICENTER":"280.1636","OBJECT_NAME":"STARLINK-3047","INCLINATION":"70.0019","OBJECT_ID":"2021-082AW"},{"PERIAPSIS":"357.249","APOAPSIS":"362.134","CENTER_NAME":"EARTH","TLE_LINE1":"1 49175U 21082AX  21278.91668981  .00028809  00000-0  24253-3 0  9993","REF_FRAME":"TEME","MEAN_ANOMALY":"146.4085","GP_ID":"186307728","SEMIMAJOR_AXIS":"6737.827","PERIOD":"91.736","EPHEMERIS_TYPE":"0","MEAN_MOTION":"15.69722919","CLASSIFICATION_TYPE":"U","RA_OF_ASC_NODE":"65.5383","NORAD_CAT_ID":"49175","TIME_SYSTEM":"UTC","OBJECT_TYPE":"PAYLOAD","MEAN_MOTION_DDOT":"0.0000000000000","DECAY_DATE":null,"ELEMENT_SET_NO":"999","OBJECT_ID":"2021-082AX","INCLINATION":"70.0017","ARG_OF_PERICENTER":"280.7840","SITE":"AFWTR","OBJECT_NAME":"STARLINK-3087","TLE_LINE2":"2 49175  70.0017  65.5383 0003625 280.7840 146.4085 15.69722919  3741","LAUNCH_DATE":"2021-09-14","FILE":"3146344","REV_AT_EPOCH":"374","RCS_SIZE":"LARGE","MEAN_ELEMENT_THEORY":"SGP4","EPOCH":"2021-10-05T22:00:01.999584","COUNTRY_CODE":"US","ECCENTRICITY":"0.00036250","MEAN_MOTION_DOT":"0.00028809","BSTAR":"0.00024253000000"},{"TIME_SYSTEM":"UTC","NORAD_CAT_ID":"49176","OBJECT_TYPE":"PAYLOAD","MEAN_MOTION":"15.69617186","CLASSIFICATION_TYPE":"U","RA_OF_ASC_NODE":"65.5215","ELEMENT_SET_NO":"999","DECAY_DATE":null,"MEAN_MOTION_DDOT":"0.0000000000000","MEAN_ANOMALY":"153.2489","REF_FRAME":"TEME","GP_ID":"186284352","SEMIMAJOR_AXIS":"6738.129","PERIAPSIS":"357.649","TLE_LINE1":"1 49176U 21082AY  21278.91668981  .00215977  00000-0  17744-2 0  9994","APOAPSIS":"362.339","CENTER_NAME":"EARTH","PERIOD":"91.742","EPHEMERIS_TYPE":"0","REV_AT_EPOCH":"352","RCS_SIZE":"LARGE","MEAN_ELEMENT_THEORY":"SGP4","LAUNCH_DATE":"2021-09-14","TLE_LINE2":"2 49176  69.9996  65.5215 0003480 282.2918 153.2489 15.69617186  3520","FILE":"3146308","BSTAR":"0.00177440000000","COUNTRY_CODE":"US","EPOCH":"2021-10-05T22:00:01.999584","MEAN_MOTION_DOT":"0.00215977","ECCENTRICITY":"0.00034800","INCLINATION":"69.9996","OBJECT_ID":"2021-082AY","OBJECT_NAME":"STARLINK-3069","SITE":"AFWTR","ARG_OF_PERICENTER":"282.2918"},{"CLASSIFICATION_TYPE":"U","RA_OF_ASC_NODE":"65.5367","MEAN_MOTION":"15.69789267","OBJECT_TYPE":"PAYLOAD","TIME_SYSTEM":"UTC","NORAD_CAT_ID":"49177","MEAN_MOTION_DDOT":"0.0000000000000","ELEMENT_SET_NO":"999","DECAY_DATE":null,"TLE_LINE1":"1 49177U 21082AZ  21278.91668981 -.00018497  00000-0 -15325-3 0  9999","APOAPSIS":"361.903","CENTER_NAME":"EARTH","PERIAPSIS":"357.101","SEMIMAJOR_AXIS":"6737.637","GP_ID":"186283881","MEAN_ANOMALY":"147.6181","REF_FRAME":"TEME","EPHEMERIS_TYPE":"0","PERIOD":"91.732","FILE":"3146308","LAUNCH_DATE":"2021-09-14","TLE_LINE2":"2 49177  70.0014  65.5367 0003563 281.6315 147.6181 15.69789267  4728","MEAN_ELEMENT_THEORY":"SGP4","REV_AT_EPOCH":"472","RCS_SIZE":"LARGE","MEAN_MOTION_DOT":"-0.00018497","ECCENTRICITY":"0.00035630","COUNTRY_CODE":"US","EPOCH":"2021-10-05T22:00:01.999584","BSTAR":"-0.00015325000000","INCLINATION":"70.0014","OBJECT_ID":"2021-082AZ","SITE":"AFWTR","ARG_OF_PERICENTER":"281.6315","OBJECT_NAME":"STARLINK-3103"}];
